NORAD_CAT_ID,OBJECT_NAME,OBJECT_TYPE,EPOCH,MEAN_MOTION,ECCENTRICITY,INCLINATION,RA_OF_ASC_NODE,ARG_OF_PERICENTER,MEAN_ANOMALY,BSTAR,MEAN_MOTION_DOT,MEAN_MOTION_DDOT,TLE_LINE0,TLE_LINE1,TLE_LINE2,SEMIMAJOR_AXIS,PERIOD,APOGEE,PERIGEE,DECAYED
51737.0,STARLINK-3509,PAYLOAD,2024-05-11 19:36:28,15.08835479,0.0002127,53.2196,72.8319,96.4657,263.6577,-0.00064913,-0.00010603,0.0,0 STARLINK-3509,1 51737U 22016Z   24132.81699560 -.00010603  00000-0 -64913-3 0  9998,2 51737  53.2196  72.8319 0002127  96.4657 263.6577 15.08835479123945,6917.894,95.438,541.231,538.288,0.0
51737.0,STARLINK-3509,PAYLOAD,2024-05-12 05:08:47,15.08804502,0.0001264,53.2184,71.0433,96.8129,263.3007,-0.0013472,-0.00021643,0.0,0 STARLINK-3509,1 51737U 22016Z   24133.21444038 -.00021643  00000-0 -13472-2 0  9990,2 51737  53.2184  71.0433 0001264  96.8129 263.3007 15.08804502124005,6917.989,95.44,540.728,538.979,0.0
51737.0,STARLINK-3509,PAYLOAD,2024-05-12 13:05:44,15.08801771,0.0001399,53.2189,69.5611,101.5135,258.6014,-0.0010211,-0.00016485,0.0,0 STARLINK-3509,1 51737U 22016Z   24133.54565033 -.00016485  00000-0 -10211-2 0  9991,2 51737  53.2189  69.5611 0001399 101.5135 258.6014 15.08801771122996,6917.997,95.44,540.83,538.894,0.0
51737.0,STARLINK-3509,PAYLOAD,2024-05-13 04:59:36,15.08820739,0.000137,53.218,66.5855,113.2834,246.8303,0.00095207,0.00014889,0.0,0 STARLINK-3509,1 51737U 22016Z   24134.20806539  .00014889  00000-0  95207-3 0  9997,2 51737  53.2180  66.5855 0001370 113.2834 246.8303 15.08820739124154,6917.939,95.439,540.752,538.857,0.0
51737.0,STARLINK-3509,PAYLOAD,2024-05-13 12:56:32,15.08832631,0.0001264,53.218,65.1,106.4475,253.6656,0.0013082,0.00020589,0.0,0 STARLINK-3509,1 51737U 22016Z   24134.53926820  .00020589  00000-0  13082-2 0  9993,2 51737  53.2180  65.1000 0001264 106.4475 253.6656 15.08832631123147,6917.903,95.438,540.642,538.893,0.0
51737.0,STARLINK-3509,PAYLOAD,2024-05-14 01:39:36,15.08864235,0.0001116,53.2175,62.7191,109.9188,250.1924,0.0011336,0.00017811,0.0,0 STARLINK-3509,1 51737U 22016Z   24135.06917731  .00017811  00000-0  11336-2 0  9997,2 51737  53.2175  62.7191 0001116 109.9188 250.1924 15.08864235124281,6917.806,95.436,540.443,538.899,0.0
51737.0,STARLINK-3509,PAYLOAD,2024-05-14 12:47:17,15.08880106,9.98e-05,53.2168,60.6387,102.1894,257.921,0.0007123,0.00011079,0.0,0 STARLINK-3509,1 51737U 22016Z   24135.53284406  .00011079  00000-0  71230-3 0  9995,2 51737  53.2168  60.6387 0000998 102.1894 257.9210 15.08880106123291,6917.758,95.435,540.313,538.932,0.0
51737.0,STARLINK-3509,PAYLOAD,2024-05-14 22:19:36,15.08851745,0.0001435,53.2183,58.8523,108.2771,251.8378,-0.00024985,-4.263e-05,0.0,0 STARLINK-3509,1 51737U 22016Z   24135.93028647 -.00004263  00000-0 -24985-3 0  9996,2 51737  53.2183  58.8523 0001435 108.2771 251.8378 15.08851745123359,6917.844,95.437,540.702,538.717,0.0
51737.0,STARLINK-3509,PAYLOAD,2024-05-15 04:41:09,15.08851476,0.0001557,53.2189,57.6628,120.6531,239.4615,9.0545e-05,1.154e-05,0.0,0 STARLINK-3509,1 51737U 22016Z   24136.19524320  .00001154  00000-0  90545-4 0  9994,2 51737  53.2189  57.6628 0001557 120.6531 239.4615 15.08851476124454,6917.845,95.437,540.787,538.633,0.0
51737.0,STARLINK-3509,PAYLOAD,2024-05-15 18:59:37,15.08841054,0.000164,53.2193,54.9841,116.9306,243.1854,0.00038639,5.867e-05,0.0,0 STARLINK-3509,1 51737U 22016Z   24136.79140725  .00005867  00000-0  38639-3 0  9993,2 51737  53.2193  54.9841 0001640 116.9306 243.1854 15.08841054124545,6917.877,95.437,540.877,538.608,0.0
51737.0,STARLINK-3509,PAYLOAD,2024-05-15 22:10:23,15.08844865,0.0001539,53.219,54.3894,118.3167,241.7981,-5.2277e-06,-3.71e-06,0.0,0 STARLINK-3509,1 51737U 22016Z   24136.92388534 -.00000371  00000-0 -52277-5 0  9993,2 51737  53.2190  54.3894 0001539 118.3167 241.7981 15.08844865123505,6917.866,95.437,540.795,538.666,0.0
51737.0,STARLINK-3509,PAYLOAD,2024-05-16 10:53:27,15.0886811,0.0001171,53.2188,52.0139,93.9636,266.149,0.00044421,6.794e-05,0.0,0 STARLINK-3509,1 51737U 22016Z   24137.45379489  .00006794  00000-0  44421-3 0  9994,2 51737  53.2188  52.0139 0001171  93.9636 266.1490 15.08868110124641,6917.794,95.436,540.47,538.849,0.0
51737.0,STARLINK-3509,PAYLOAD,2024-05-16 18:50:25,15.0881163,9.52e-05,53.2186,50.5247,91.86,268.2501,-0.00055947,-9.174e-05,0.0,0 STARLINK-3509,1 51737U 22016Z   24137.78501411 -.00009174  00000-0 -55947-3 0  9994,2 51737  53.2186  50.5247 0000952  91.8600 268.2501 15.08811630124692,6917.967,95.439,540.491,539.174,0.0
51737.0,STARLINK-3509,PAYLOAD,2024-05-17 01:11:57,15.08833279,0.0001118,53.2179,49.3361,88.5677,271.5443,-3.3862e-05,-8.27e-06,0.0,0 STARLINK-3509,1 51737U 22016Z   24138.04997057 -.00000827  00000-0 -33862-4 0  9998,2 51737  53.2179  49.3361 0001118  88.5677 271.5443 15.08833279124739,6917.901,95.438,540.539,538.993,0.0
51737.0,STARLINK-3509,PAYLOAD,2024-05-17 10:44:15,15.08853801,0.0001054,53.2183,47.5513,83.7203,276.3909,0.00034312,5.179e-05,0.0,0 STARLINK-3509,1 51737U 22016Z   24138.44740201  .00005179  00000-0  34312-3 0  9992,2 51737  53.2183  47.5513 0001054  83.7203 276.3909 15.08853801124793,6917.838,95.437,540.432,538.974,0.0
51737.0,STARLINK-3509,PAYLOAD,2024-05-17 18:41:13,15.08801009,0.0001493,53.2194,46.0667,82.4847,277.6315,-0.00058429,-9.565e-05,0.0,0 STARLINK-3509,1 51737U 22016Z   24138.77862769 -.00009565  00000-0 -58429-3 0  9992,2 51737  53.2194  46.0667 0001493  82.4847 277.6315 15.08801009124840,6918.0,95.44,540.897,538.832,0.0
51737.0,STARLINK-3509,PAYLOAD,2024-05-17 21:51:59,15.08802654,0.0001496,53.2186,45.4728,92.8541,267.2622,-0.00050787,-8.353e-05,0.0,0 STARLINK-3509,1 51737U 22016Z   24138.91110953 -.00008353  00000-0 -50787-3 0  9992,2 51737  53.2186  45.4728 0001496  92.8541 267.2622 15.08802654123809,6917.995,95.44,540.894,538.825,0.0
51737.0,STARLINK-3509,PAYLOAD,2024-05-18 01:02:46,15.0881492,0.0001242,53.217,44.8782,81.7493,278.364,-0.00019486,-3.386e-05,0.0,0 STARLINK-3509,1 51737U 22016Z   24139.04358887 -.00003386  00000-0 -19486-3 0  9999,2 51737  53.2170  44.8782 0001242  81.7493 278.3640 15.08814920124888,6917.957,95.439,540.681,538.963,0.0
51737.0,STARLINK-3509,PAYLOAD,2024-05-18 10:35:04,15.08834845,0.0001328,53.2187,43.0927,78.8936,281.2206,0.00017286,2.464e-05,0.0,0 STARLINK-3509,1 51737U 22016Z   24139.44102392  .00002464  00000-0  17286-3 0  9991,2 51737  53.2187  43.0927 0001328  78.8936 281.2206 15.08834845124948,6917.896,95.438,540.68,538.842,0.0
51737.0,STARLINK-3509,PAYLOAD,2024-05-18 21:42:46,15.08843329,0.0001147,53.2177,41.01,73.9225,286.1893,0.00056678,8.745e-05,0.0,0 STARLINK-3509,1 51737U 22016Z   24139.90470506  .00008745  00000-0  56678-3 0  9993,2 51737  53.2177  41.0100 0001147  73.9225 286.1893 15.08843329123957,6917.87,95.437,540.529,538.942,0.0
51737.0,STARLINK-3509,PAYLOAD,2024-05-19 02:28:55,15.08868241,0.0001157,53.2174,40.1191,92.3842,267.7283,0.0012168,0.00019145,0.0,0 STARLINK-3509,1 51737U 22016Z   24140.10341859  .00019145  00000-0  12168-2 0  9996,2 51737  53.2174  40.1191 0001157  92.3842 267.7283 15.08868241125045,6917.794,95.436,540.459,538.859,0.0
51737.0,STARLINK-3509,PAYLOAD,2024-05-19 16:47:22,15.08864778,0.0001328,53.2174,37.4416,115.3767,244.7363,0.00038705,5.881e-05,0.0,0 STARLINK-3509,1 51737U 22016Z   24140.69957104  .00005881  00000-0  38705-3 0  9994,2 51737  53.2174  37.4416 0001328 115.3767 244.7363 15.08864778125131,6917.805,95.436,540.588,538.751,0.0
51737.0,STARLINK-3509,PAYLOAD,2024-05-20 00:44:18,15.08849295,9.61e-05,53.2182,35.9516,82.0331,278.077,0.00012391,1.685e-05,0.0,0 STARLINK-3509,1 51737U 22016Z   24141.03077525  .00001685  00000-0  12391-3 0  9994,2 51737  53.2182  35.9516 0000961  82.0331 278.0770 15.08849295125187,6917.852,95.437,540.382,539.052,0.0
51737.0,STARLINK-3509,PAYLOAD,2024-05-20 21:24:20,15.08835802,0.000183,53.2191,32.0907,54.44,305.6762,-0.0001151,-2.119e-05,0.0,0 STARLINK-3509,1 51737U 22016Z   24141.89190438 -.00002119  00000-0 -11510-3 0  9994,2 51737  53.2191  32.0907 0001830  54.4400 305.6762 15.08835802125317,6917.893,95.438,541.024,538.492,0.0
51737.0,STARLINK-3509,PAYLOAD,2024-05-20 22:59:43,15.08836866,0.0001759,53.2186,31.7906,52.2728,307.8424,-0.00021427,-3.696e-05,0.0,0 STARLINK-3509,1 51737U 22016Z   24141.95814356 -.00003696  00000-0 -21427-3 0  9992,2 51737  53.2186  31.7906 0001759  52.2728 307.8424 15.08836866124268,6917.89,95.438,540.972,538.538,0.0
51737.0,STARLINK-3509,PAYLOAD,2024-05-21 22:50:31,15.0883232,0.0001356,53.218,27.332,68.0832,292.0304,0.00011137,1.485e-05,0.0,0 STARLINK-3509,1 51737U 22016Z   24142.95174843  .00001485  00000-0  11137-3 0  9992,2 51737  53.2180  27.3320 0001356  68.0832 292.0304 15.08832320124417,6917.904,95.438,540.707,538.831,0.0
51737.0,STARLINK-3509,PAYLOAD,2024-05-22 21:05:54,15.08839429,0.0001358,53.2185,23.1774,97.0998,263.0149,0.00014974,2.096e-05,0.0,0 STARLINK-3509,1 51737U 22016Z   24143.87910620  .00002096  00000-0  14974-3 0  9996,2 51737  53.2185  23.1774 0001358  97.0998 263.0149 15.08839429125611,6917.882,95.438,540.687,538.808,0.0
51737.0,STARLINK-3509,PAYLOAD,2024-05-23 01:52:03,15.08841778,0.0001281,53.2182,22.2768,89.1219,270.9919,0.00016046,2.267e-05,0.0,0 STARLINK-3509,1 51737U 22016Z   24144.07782407  .00002267  00000-0  16046-3 0  9991,2 51737  53.2182  22.2768 0001281  89.1219 270.9919 15.08841778124581,6917.875,95.437,540.626,538.854,0.0
51737.0,STARLINK-3509,PAYLOAD,2024-05-23 20:56:41,15.08841829,0.00012,53.2181,18.7072,91.2465,268.8664,0.00011,1.463e-05,0.0,0 STARLINK-3509,1 51737U 22016Z   24144.87270514  .00001463  00000-0  11000-3 0  9992,2 51737  53.2181  18.7072 0001200  91.2465 268.8664 15.08841829124700,6917.875,95.437,540.57,538.91,0.0
51737.0,STARLINK-3509,PAYLOAD,2024-05-23 22:32:04,15.0884213,0.0001224,53.2182,18.4098,94.7151,265.3981,0.00011069,1.474e-05,0.0,0 STARLINK-3509,1 51737U 22016Z   24144.93894469  .00001474  00000-0  11069-3 0  9997,2 51737  53.2182  18.4098 0001224  94.7151 265.3981 15.08842130125770,6917.874,95.437,540.586,538.892,0.0
